{"fetched_at":"2026-07-19T07:04:49.137Z","source":"https://celestrak.org/NORAD/elements/gp.php?GROUP=oneweb&FORMAT=JSON","constellation":"oneweb","records":[{"OBJECT_NAME":"ONEWEB-0435","OBJECT_ID":"2022-012L","EPOCH":"2026-07-18T19:21:55.842048","CLASSIFICATION_TYPE":"U","MEAN_MOTION":13.1037954,"ECCENTRICITY":0.000194,"INCLINATION":87.8819,"RA_OF_ASC_NODE":29.9746,"ARG_OF_PERICENTER":97.9395,"MEAN_ANOMALY":262.1953,"EPHEMERIS_TYPE":0,"NORAD_CAT_ID":51632,"ELEMENT_SET_NO":999,"REV_AT_EPOCH":21345,"BSTAR":0.00016247,"MEAN_MOTION_DOT":6.9e-7,"MEAN_MOTION_DDOT":0},{"OBJECT_NAME":"ONEWEB-0436","OBJECT_ID":"2022-012M","EPOCH":"2026-07-18T17:25:02.417088","CLASSIFICATION_TYPE":"U","MEAN_MOTION":13.17647841,"ECCENTRICITY":0.0001962,"INCLINATION":87.9157,"RA_OF_ASC_NODE":359.5737,"ARG_OF_PERICENTER":99.225,"MEAN_ANOMALY":260.9104,"EPHEMERIS_TYPE":0,"NORAD_CAT_ID":51633,"ELEMENT_SET_NO":999,"REV_AT_EPOCH":21783,"BSTAR":0.00015596,"MEAN_MOTION_DOT":7.3e-7,"MEAN_MOTION_DDOT":0},{"OBJECT_NAME":"ONEWEB-0438","OBJECT_ID":"2022-012N","EPOCH":"2026-07-18T18:59:55.090176","CLASSIFICATION_TYPE":"U","MEAN_MOTION":13.10373439,"ECCENTRICITY":0.0001788,"INCLINATION":87.8815,"RA_OF_ASC_NODE":29.9818,"ARG_OF_PERICENTER":81.2923,"MEAN_ANOMALY":278.8407,"EPHEMERIS_TYPE":0,"NORAD_CAT_ID":51634,"ELEMENT_SET_NO":999,"REV_AT_EPOCH":21348,"BSTAR":-0.0017223,"MEAN_MOTION_DOT":-0.00000589,"MEAN_MOTION_DDOT":0},{"OBJECT_NAME":"ONEWEB-0439","OBJECT_ID":"2022-012P","EPOCH":"2026-07-18T11:45:00.046368","CLASSIFICATION_TYPE":"U","MEAN_MOTION":13.10376769,"ECCENTRICITY":0.00017448,"INCLINATION":87.8819,"RA_OF_ASC_NODE":30.0296,"ARG_OF_PERICENTER":86.8944,"MEAN_ANOMALY":273.2383,"EPHEMERIS_TYPE":0,"NORAD_CAT_ID":51635,"ELEMENT_SET_NO":999,"REV_AT_EPOCH":21342,"BSTAR":-0.0013984744,"MEAN_MOTION_DOT":-0.00000476,"MEAN_MOTION_DDOT":0},{"OBJECT_NAME":"ONEWEB-0442","OBJECT_ID":"2022-012Q","EPOCH":"2026-07-18T09:56:43.044576","CLASSIFICATION_TYPE":"U","MEAN_MOTION":13.17650818,"ECCENTRICITY":0.00016315,"INCLINATION":87.9148,"RA_OF_ASC_NODE":359.6659,"ARG_OF_PERICENTER":75.1175,"MEAN_ANOMALY":285.0137,"EPHEMERIS_TYPE":0,"NORAD_CAT_ID":51636,"ELEMENT_SET_NO":999,"REV_AT_EPOCH":21778,"BSTAR":0.000045433652,"MEAN_MOTION_DOT":3.1e-7,"MEAN_MOTION_DDOT":0},{"OBJECT_NAME":"ONEWEB-0443","OBJECT_ID":"2022-012R","EPOCH":"2026-07-18T19:31:23.863296","CLASSIFICATION_TYPE":"U","MEAN_MOTION":13.17646368,"ECCENTRICITY":0.0001562,"INCLINATION":87.9148,"RA_OF_ASC_NODE":359.5878,"ARG_OF_PERICENTER":98.8654,"MEAN_ANOMALY":261.2655,"EPHEMERIS_TYPE":0,"NORAD_CAT_ID":51637,"ELEMENT_SET_NO":999,"REV_AT_EPOCH":21788,"BSTAR":-0.00031048,"MEAN_MOTION_DOT":-0.00000108,"MEAN_MOTION_DDOT":0},{"OBJECT_NAME":"ONEWEB-0444","OBJECT_ID":"2022-012S","EPOCH":"2026-07-18T18:50:08.966400","CLASSIFICATION_TYPE":"U","MEAN_MOTION":13.10371857,"ECCENTRICITY":0.0001658,"INCLINATION":87.8819,"RA_OF_ASC_NODE":29.9694,"ARG_OF_PERICENTER":91.7504,"MEAN_ANOMALY":268.3813,"EPHEMERIS_TYPE":0,"NORAD_CAT_ID":51638,"ELEMENT_SET_NO":999,"REV_AT_EPOCH":21347,"BSTAR":-0.0018075,"MEAN_MOTION_DOT":-0.00000618,"MEAN_MOTION_DDOT":0},{"OBJECT_NAME":"ONEWEB-0445","OBJECT_ID":"2022-012T","EPOCH":"2026-07-18T19:19:28.306272","CLASSIFICATION_TYPE":"U","MEAN_MOTION":13.10377815,"ECCENTRICITY":0.0001924,"INCLINATION":87.8826,"RA_OF_ASC_NODE":29.9557,"ARG_OF_PERICENTER":85.3854,"MEAN_ANOMALY":274.7493,"EPHEMERIS_TYPE":0,"NORAD_CAT_ID":51639,"ELEMENT_SET_NO":999,"REV_AT_EPOCH":21348,"BSTAR":-0.0010351,"MEAN_MOTION_DOT":-0.00000349,"MEAN_MOTION_DDOT":0},{"OBJECT_NAME":"ONEWEB-0446","OBJECT_ID":"2022-012U","EPOCH":"2026-07-18T05:58:01.113600","CLASSIFICATION_TYPE":"U","MEAN_MOTION":13.10371516,"ECCENTRICITY":0.00020998,"INCLINATION":87.8815,"RA_OF_ASC_NODE":30.0933,"ARG_OF_PERICENTER":82.1971,"MEAN_ANOMALY":277.9395,"EPHEMERIS_TYPE":0,"NORAD_CAT_ID":51640,"ELEMENT_SET_NO":999,"REV_AT_EPOCH":21339,"BSTAR":-0.0018024475,"MEAN_MOTION_DOT":-0.00000616,"MEAN_MOTION_DDOT":0},{"OBJECT_NAME":"ONEWEB-0448","OBJECT_ID":"2022-012V","EPOCH":"2026-07-18T11:35:12.840000","CLASSIFICATION_TYPE":"U","MEAN_MOTION":13.10373052,"ECCENTRICITY":0.00017948,"INCLINATION":87.8813,"RA_OF_ASC_NODE":30.0419,"ARG_OF_PERICENTER":88.55,"MEAN_ANOMALY":271.5833,"EPHEMERIS_TYPE":0,"NORAD_CAT_ID":51641,"ELEMENT_SET_NO":999,"REV_AT_EPOCH":21339,"BSTAR":-0.0022873675,"MEAN_MOTION_DOT":-0.00000786,"MEAN_MOTION_DDOT":0},{"OBJECT_NAME":"ONEWEB-0449","OBJECT_ID":"2022-012W","EPOCH":"2026-07-18T19:02:21.884640","CLASSIFICATION_TYPE":"U","MEAN_MOTION":13.10374171,"ECCENTRICITY":0.0001777,"INCLINATION":87.8821,"RA_OF_ASC_NODE":29.9675,"ARG_OF_PERICENTER":68.9539,"MEAN_ANOMALY":291.1779,"EPHEMERIS_TYPE":0,"NORAD_CAT_ID":51642,"ELEMENT_SET_NO":999,"REV_AT_EPOCH":21344,"BSTAR":-0.0019225,"MEAN_MOTION_DOT":-0.00000658,"MEAN_MOTION_DDOT":0},{"OBJECT_NAME":"ONEWEB-0451","OBJECT_ID":"2022-012X","EPOCH":"2026-07-18T10:02:46.557024","CLASSIFICATION_TYPE":"U","MEAN_MOTION":13.17648587,"ECCENTRICITY":0.00016779,"INCLINATION":87.9159,"RA_OF_ASC_NODE":359.6332,"ARG_OF_PERICENTER":89.6445,"MEAN_ANOMALY":270.4879,"EPHEMERIS_TYPE":0,"NORAD_CAT_ID":51643,"ELEMENT_SET_NO":999,"REV_AT_EPOCH":21777,"BSTAR":-0.00059935448,"MEAN_MOTION_DOT":-0.0000022,"MEAN_MOTION_DDOT":0},{"OBJECT_NAME":"ONEWEB-0452","OBJECT_ID":"2022-012Y","EPOCH":"2026-07-18T10:00:21.501792","CLASSIFICATION_TYPE":"U","MEAN_MOTION":13.17647675,"ECCENTRICITY":0.00015671,"INCLINATION":87.9147,"RA_OF_ASC_NODE":359.6674,"ARG_OF_PERICENTER":93.3521,"MEAN_ANOMALY":266.779,"EPHEMERIS_TYPE":0,"NORAD_CAT_ID":51644,"ELEMENT_SET_NO":999,"REV_AT_EPOCH":21778,"BSTAR":0.00010212889,"MEAN_MOTION_DOT":5.3e-7,"MEAN_MOTION_DDOT":0},{"OBJECT_NAME":"ONEWEB-0456","OBJECT_ID":"2022-012AA","EPOCH":"2026-07-18T06:24:53.843904","CLASSIFICATION_TYPE":"U","MEAN_MOTION":13.10375074,"ECCENTRICITY":0.00018287,"INCLINATION":87.8832,"RA_OF_ASC_NODE":30.0618,"ARG_OF_PERICENTER":92.77,"MEAN_ANOMALY":267.3637,"EPHEMERIS_TYPE":0,"NORAD_CAT_ID":51646,"ELEMENT_SET_NO":999,"REV_AT_EPOCH":21341,"BSTAR":-0.00061077089,"MEAN_MOTION_DOT":-0.00000201,"MEAN_MOTION_DDOT":0},{"OBJECT_NAME":"ONEWEB-0457","OBJECT_ID":"2022-012AB","EPOCH":"2026-07-18T05:52:56.447328","CLASSIFICATION_TYPE":"U","MEAN_MOTION":13.10371587,"ECCENTRICITY":0.0002056,"INCLINATION":87.8815,"RA_OF_ASC_NODE":30.0813,"ARG_OF_PERICENTER":78.7458,"MEAN_ANOMALY":281.3901,"EPHEMERIS_TYPE":0,"NORAD_CAT_ID":51647,"ELEMENT_SET_NO":999,"REV_AT_EPOCH":21341,"BSTAR":-0.0015397706,"MEAN_MOTION_DOT":-0.00000525,"MEAN_MOTION_DDOT":0},{"OBJECT_NAME":"ONEWEB-0458","OBJECT_ID":"2022-012AC","EPOCH":"2026-07-18T11:53:33.338400","CLASSIFICATION_TYPE":"U","MEAN_MOTION":13.10376267,"ECCENTRICITY":0.00016171,"INCLINATION":87.8823,"RA_OF_ASC_NODE":30.0201,"ARG_OF_PERICENTER":87.6286,"MEAN_ANOMALY":272.5027,"EPHEMERIS_TYPE":0,"NORAD_CAT_ID":51648,"ELEMENT_SET_NO":999,"REV_AT_EPOCH":21340,"BSTAR":-0.00067184346,"MEAN_MOTION_DOT":-0.00000222,"MEAN_MOTION_DDOT":0}]}
